[{"OBJECT_NAME":"STARLINK-32172","OBJECT_ID":"2024-183K","EPOCH":"2026-03-09T11:51:18.217440","MEAN_MOTION":15.3018809,"ECCENTRICITY":0.00011252,"INCLINATION":53.1601,"RA_OF_ASC_NODE":143.2666,"ARG_OF_PERICENTER":87.2122,"MEAN_ANOMALY":272.9008,"EPHEMERIS_TYPE":0,"CLASSIFICATION_TYPE":"U","NORAD_CAT_ID":61518,"ELEMENT_SET_NO":999,"REV_AT_EPOCH":7962,"BSTAR":4.1759336e-5,"MEAN_MOTION_DOT":8.77e-6,"MEAN_MOTION_DDOT":0},{"OBJECT_NAME":"COSMOS 2588","OBJECT_ID":"2025-109A","EPOCH":"2026-03-09T19:28:59.107008","MEAN_MOTION":15.29122656,"ECCENTRICITY":0.0005019,"INCLINATION":72.9704,"RA_OF_ASC_NODE":73.5401,"ARG_OF_PERICENTER":308.678,"MEAN_ANOMALY":51.3966,"EPHEMERIS_TYPE":0,"CLASSIFICATION_TYPE":"U","NORAD_CAT_ID":64095,"ELEMENT_SET_NO":999,"REV_AT_EPOCH":4442,"BSTAR":0.00032611,"MEAN_MOTION_DOT":9.169e-5,"MEAN_MOTION_DDOT":0}]
